C/2021 N3 (PANSTARRS),e,26.7624,337.5241,304.6090,140.8183,0.0005898,0.95943307,1.0227,05/17.0/2025,2000,g  8.5,4.0
# From MPEC 2022-A21
C/2021 O1 (Nishimura),e,27.5730,41.5475,74.4223,4662,0.0000031,0.99983211,0.0000,08/14.7261/2021,2000,g 10.5,4.0
# From MPEC 2022-L66
C/2021 O3 (PANSTARRS),h,04/21.2705/2022,56.8250,188.8032,300.0126,1.000050,0.285163,2000,10.5,4.0
# From MPEC 2024-F34
C/2021 P1 (PANSTARRS),e,51.6216,359.7098,40.5244,2738,0.0000069,0.99840066,0.0000,06/02.5892/2022,2000,g 11.0,4.0
# From MPEC 2025-J72
C/2021 P2 (PANSTARRS),e,150.0559,32.0938,76.7174,12723,0.0000007,0.99960167,0.0000,01/23.0789/2023,2000,g  9.0,4.0
# From MPEC 2024-GJ3
P/2021 P3 (PANSTARRS),e,27.1600,358.2486,334.0153,4.412215,0.1063455,0.33837992,154.1545,05/17.0/2025,2000,g 14.0,4.0
# From MPEC 2023-A50
C/2021 P4 (ATLAS),e,56.3702,348.0126,175.8061,295.9654,0.0001936,0.99635541,0.0000,07/30.4160/2022,2000,g  9.5,4.0
# From MPEC 2023-E68
P/2021 PE20 (ATLAS),e,20.0000,99.6247,210.4365,3.745892,0.1359475,0.66993106,195.9638,05/17.0/2025,2000,g 17.0,4.0
# From MPEC 2023-FK0
C/2021 Q3 (ATLAS),e,77.7175,307.9097,114.1439,75.13733,0.0015133,0.93067980,1.8264,05/17.0/2025,2000,g  8.0,4.0
# From MPEC 2025-A40
C/2021 Q4 (Fuls),h,06/11.1932/2023,71.5284,183.3287,147.0612,1.001869,7.565270,2000,6.0,4.0
# From MPEC 2022-C56
P/2021 Q5 (ATLAS),e,10.7384,239.7557,180.9559,3.286939,0.1653928,0.62457696,224.0519,05/17.0/2025,2000,g 15.0,4.0
# From MPEC 2024-UA9
C/2021 Q6 (PANSTARRS),h,03/25.2138/2024,161.8260,133.5741,141.0641,1.002750,8.707744,2000,6.0,4.0
# From MPEC 2023-FK0
C/2021 QM45 (PANSTARRS),e,22.8002,354.5967,72.9164,408.1775,0.0001195,0.99319451,0.0000,08/13.6863/2022,2000,g 11.0,4.0
# From MPEC 2022-X67
P/2021 R1 (PANSTARRS),e,5.5318,143.1172,220.0561,8.256211,0.0415464,0.40839177,52.1336,05/17.0/2025,2000,g 11.0,4.0
# From MPEC 2022-X67
C/2021 R2 (PANSTARRS),e,134.4825,16.3351,32.5500,9984,0.0000010,0.99926720,0.0000,12/28.4276/2021,2000,g  7.5,4.0
# From MPEC 2021-W31
P/2021 R3 (PANSTARRS),e,19.9409,304.1938,2.5940,3.769408,0.1346773,0.33147893,195.7165,05/17.0/2025,2000,g 16.0,4.0
# From MPEC 2021-W31
P/2021 R4 (Wierzchos),e,21.0125,321.2828,56.7742,5.627572,0.0738282,0.58531486,96.8273,05/17.0/2025,2000,g 16.0,4.0
# From MPEC 2024-JU4
P/2021 R5 (Rankin),e,7.8539,219.9615,167.6048,4.797896,0.0937838,0.30598314,114.4681,05/17.0/2025,2000,g 12.0,4.0
# From MPEC 2021-W31
P/2021 R6 (Groeller),e,34.8931,176.1618,220.8773,6.288872,0.0624950,0.59306725,80.8081,05/17.0/2025,2000,g 14.5,4.0
# From MPEC 2022-X67
C/2021 R7 (PANSTARRS),e,158.8743,170.1989,140.3926,989.5328,0.0000317,0.99428567,0.0000,04/17.2732/2021,2000,g 10.5,4.0
# From MPEC 2021-Y10
P/2021 R8 (Sheppard),e,2.2027,167.0664,190.8218,3.020190,0.1877815,0.29257016,247.5599,05/17.0/2025,2000,g 18.5,4.0
# From MPEC 2023-J29
C/2021 S1 (ATLAS),h,03/01.9814/2022,52.0389,299.8571,148.3033,1.002889,6.124721,2000,7.0,4.0
# From MPEC 2025-J72
C/2021 S3 (PANSTARRS),h,02/14.6761/2024,58.5382,215.6095,6.8380,1.000029,1.319822,2000,5.5,4.0
# From MPEC 2025-GB9
C/2021 S4 (Tsuchinshan),e,17.4793,5.4549,73.0350,156.7870,0.0005020,0.95732091,0.2506,05/17.0/2025,2000,g  6.5,4.0
# From MPEC 2022-OB6
C/2021 T1 (Lemmon),e,140.3535,56.8475,51.5819,2766,0.0000068,0.99889352,0.0000,10/14.8241/2021,2000,g 12.5,4.0
# From MPEC 2023-A50
C/2021 T2 (Fuls),h,06/08.3083/2022,117.5150,223.2107,263.5332,1.000538,1.244365,2000,12.0,4.0
# From MPC182879
C/2021 T4 (Lemmon),e,160.7784,257.8898,329.7749,5339,0.0000025,0.99972247,0.0000,07/31.5219/2023,2000,g  7.5,4.0
# From MPEC 2025-H93
P/2021 TR81 (Lemmon),e,36.8155,220.1791,272.0057,8.772946,0.0379303,0.83301823,43.2186,05/17.0/2025,2000,g 15.6,4.0
# From MPEC 2022-ED3
P/2021 U1 (Wierzchos),e,30.5514,246.7937,145.2333,8.539601,0.0394955,0.71268527,52.2999,05/17.0/2025,2000,g 14.5,4.0
# From MPEC 2022-L66
P/2021 U3 (Attard-Maury),e,69.9620,75.0938,335.3228,4.196906,0.1146332,0.54943586,149.0383,05/17.0/2025,2000,g 15.5,4.0
# From MPEC 2021-W31
C/2021 U4 (Leonard),e,152.8836,241.8061,237.3258,45.48100,0.0032134,0.96069788,3.9893,05/17.0/2025,2000,g 17.0,4.0
# From MPEC 2022-WQ9
C/2021 U5 (Catalina),e,39.0403,182.6820,321.4570,222.0373,0.0002979,0.98937487,0.0000,01/26.9613/2022,2000,g 13.0,4.0
# From MPEC 2022-CN4
C/2021 V1 (Rankin),e,71.4373,207.6959,195.2136,716.1813,0.0000514,0.99578463,0.0000,04/30.6186/2022,2000,g 13.0,4.0
# From MPEC 2024-JU4
P/2021 V2 (Fuls),e,12.6931,232.2763,259.9011,9.089454,0.0359664,0.61523639,30.4294,05/17.0/2025,2000,g 10.0,4.0
# From MPEC 2024-TD8
C/2021 X1 (Maury-Attard),h,05/27.2721/2023,140.1066,10.6131,334.6123,1.000573,3.234524,2000,7.0,4.0
# From MPEC 2024-E08
C/2021 X2 (Bok),h,07/08.3543/2022,137.1547,228.8401,193.3812,1.001484,2.997890,2000,13.0,4.0
# From MPEC 2024-GJ3
C/2021 Y1 (ATLAS),h,04/30.9139/2023,77.1885,244.7668,245.8484,1.001561,2.032505,2000,7.0,4.0
# From MPEC 2022-YN2
C/2022 A1 (Sarneczky),e,116.5705,285.4937,201.2798,370.0133,0.0001385,0.99660556,0.0000,01/31.1235/2022,2000,g 18.0,4.0
# From MPEC 2024-P23
C/2022 A2 (PANSTARRS),h,02/18.1854/2023,108.1659,171.6021,88.3668,1.000070,1.735391,2000,9.5,4.0
# From MPEC 2024-UQ8
C/2022 A3 (Lemmon-ATLAS),e,88.3488,325.4587,234.8693,891.1757,0.0000370,0.99584333,0.0000,09/28.9497/2023,2000,g  8.0,4.0
# From MPEC 2022-K19
P/2022 B1 (Wierzchos),e,10.9941,325.3855,148.9320,5.469123,0.0770597,0.65361736,90.6240,05/17.0/2025,2000,g 16.5,4.0
# From MPEC 2022-YB4
A/2022 B3,e,132.0509,286.1770,150.7153,636.3293,0.0000614,0.99417932,0.0000,01/16.7480/2022,2000,g 16.5,2.0
# From MPEC 2022-GA9
C/2022 B4 (Bok),e,20.0564,340.5227,153.0165,404.4522,0.0001212,0.99659789,0.0000,01/30.4109/2022,2000,g 21.0,4.0
# From MPEC 2023-J29
P/2022 BV9 (Lemmon),e,11.9241,337.3089,16.3144,4.365591,0.1080537,0.23358367,180.1941,05/17.0/2025,2000,g  9.5,4.0
# From MPEC 2023-J29
P/2022 C1 (PANSTARRS),e,4.7630,113.1003,9.4530,7.233843,0.0506583,0.44911402,65.2764,05/17.0/2025,2000,g 12.0,4.0
# From MPEC 2023-VM5
P/2022 C2 (PANSTARRS),e,9.9848,135.2630,89.1405,6.033235,0.0665087,0.44196380,67.5138,05/17.0/2025,2000,g 12.5,4.0
# From MPEC 2023-UR6
P/2022 C3 (PANSTARRS),e,12.8247,139.0406,93.8081,9.616055,0.0330528,0.54548496,34.7647,05/17.0/2025,2000,g 11.5,4.0
# From MPEC 2022-K19
P/2022 D1 (PANSTARRS),e,44.0676,47.9491,88.6619,7.405644,0.0489057,0.54796475,66.3777,05/17.0/2025,2000,g 12.5,4.0
# From MPEC 2022-K19
C/2022 D2 (Kowalski),e,22.6793,312.3640,177.8499,396.4026,0.0001249,0.99608309,0.0000,03/28.0186/2022,2000,g 17.0,4.0
# From MPEC 2022-L66
P/2022 E1 (Christensen),e,19.0070,113.3419,114.9055,3.777929,0.1342219,0.22058633,143.9672,05/17.0/2025,2000,g 13.5,4.0
# From MPEC 2025-J72
C/2022 E2 (ATLAS),h,09/14.1395/2024,137.1410,125.3974,41.7472,1.000423,3.666430,2000,5.0,4.0
# From MPEC 2024-GJ3
C/2022 E3 (ZTF),e,109.1745,302.5116,145.8253,209753,0.0000000,0.99999469,0.0000,01/12.5360/2023,2000,g  7.5,4.0
# From MPEC 2024-PC5
C/2022 F1 (ATLAS),e,58.0043,350.6345,278.3366,8413,0.0000013,0.99928955,0.0000,08/05.7275/2022,2000,g  7.0,4.0
# From MPEC 2022-QD9
C/2022 F2 (NEOWISE),e,97.3163,58.7823,200.5950,23.78088,0.0084989,0.93316301,9.7872,05/17.0/2025,2000,g 14.5,4.0
# From MPEC 2024-JU4
C/2022 H1 (PANSTARRS),e,49.8599,6.3286,246.2921,854.4395,0.0000395,0.99100080,0.0000,01/18.6711/2024,2000,g  6.0,4.0
# From MPEC 2022-VC5
C/2022 J1 (Maury-Attard),e,105.9593,280.8011,305.6151,47.50733,0.0030100,0.96631284,3.5598,05/17.0/2025,2000,g 14.9,4.0
# From MPEC 2023-M14
C/2022 J2 (Bok),e,149.1412,252.6791,133.1402,89.99191,0.0011545,0.97968674,0.0000,10/26.7235/2022,2000,g  9.0,4.0
# From MPEC 2024-YC7
C/2022 JK5 (PANSTARRS),e,16.8252,59.6518,247.3831,43.93004,0.0033850,0.93864506,2.5354,05/17.0/2025,2000,g 11.0,4.0
# From MPEC 2022-ST7
C/2022 K1 (Leonard),h,12/16.6485/2021,41.9737,136.3578,142.5535,1.000914,3.986230,2000,11.0,4.0
# From MPEC 2023-CD7
C/2022 L1 (Catalina),e,123.4392,300.0319,59.8062,430.8403,0.0001102,0.99630708,0.0000,09/27.7855/2022,2000,g 15.8,4.0
# From MPEC 2025-J72
C/2022 L2 (ATLAS),h,03/12.2090/2024,129.3131,39.2423,199.9209,1.000891,2.693209,2000,6.5,4.0
# From MPEC 2024-DC6
P/2022 L3 (ATLAS),e,21.5380,29.8224,10.4108,6.506177,0.0593903,0.62747382,55.2403,05/17.0/2025,2000,g 16.5,4.0
# From MPEC 2022-N37
C/2022 L4 (PANSTARRS),e,141.2440,66.0622,125.2575,282.4656,0.0002076,0.98934707,0.0000,12/09.0682/2021,2000,g 14.0,4.0
# From MPEC 2024-GJ3
C/2022 N1 (Attard-Maury),e,164.7270,301.8786,40.9989,36.64350,0.0044433,0.95963326,4.3553,05/17.0/2025,2000,g 16.9,4.0
# From MPEC 2025-GB9
C/2022 N2 (PANSTARRS),h,07/31.7881/2025,5.5029,319.7404,75.3951,1.003292,3.825385,2000,6.0,4.0
# From MPEC 2024-A43
C/2022 O1 (ATLAS),h,02/15.4479/2022,71.0499,49.9118,268.9420,1.001427,7.434765,2000,6.0,4.0
# From MPEC 2023-HD1
P/2022 O2 (PANSTARRS),e,9.4189,330.4917,48.6661,6.305313,0.0622507,0.72098739,53.6125,05/17.0/2025,2000,g 16.2,4.0
# From MPEC 2023-N01
C/2022 P1 (NEOWISE),e,154.5886,205.0703,249.8812,18.47144,0.0124152,0.91378402,11.1774,05/17.0/2025,2000,g 13.0,4.0
# From MPEC 2023-XP6
P/2022 P2 (ZTF),e,12.4408,291.1754,137.7682,4.491572,0.1035396,0.55802091,107.7809,05/17.0/2025,2000,g 12.5,4.0
# From MPEC 2023-HD1
C/2022 P3 (ZTF),e,59.5165,72.2183,0.2154,262.8854,0.0002312,0.99023884,0.0000,07/27.5270/2022,2000,g  9.0,4.0
# From MPEC 2023-R20
C/2022 Q2 (ATLAS),e,151.4604,352.9614,44.0352,32.79628,0.0052477,0.94993748,4.3885,05/17.0/2025,2000,g 13.0,4.0
# From MPEC 2025-J92
C/2022 QE78 (ATLAS),h,09/11.4610/2025,36.6071,119.8915,0.5663,1.003397,5.476071,2000,5.0,4.0
# From MPEC 2024-M41
P/2022 R1 (PANSTARRS),e,7.3770,175.6784,221.8004,7.148344,0.0515699,0.50115451,30.4533,05/17.0/2025,2000,g 11.5,4.0
# From MPEC 2022-Y15
C/2022 R2 (ATLAS),e,52.8950,60.3954,78.3209,437.8841,0.0001076,0.99856051,0.0000,10/25.5306/2022,2000,g 17.0,4.0
# From MPC182880
C/2022 R3 (Leonard),h,03/05.9060/2023,43.0727,8.2582,72.9310,1.001522,5.131854,2000,9.0,4.0
# From MPEC 2022-X67
P/2022 R4 (PANSTARRS),e,21.0098,176.6351,197.4952,3.838503,0.1310573,0.48949169,136.5714,05/17.0/2025,2000,g 16.5,4.0
